GLOBALSTAR M035         
1 25851U 99037A   25165.43470498 -.00000073  00000+0 -35246-3 0  9991
2 25851  51.9967  61.1030 0014045 339.7411 191.2677 11.04538320 95962
GLOBALSTAR M032         
1 25852U 99037B   25165.47372394 -.00000005  00000+0  19952-2 0  9991
2 25852  51.9944 246.4030 0012549 161.9963 198.1283 11.19061542134540
GLOBALSTAR M051         
1 25853U 99037C   25164.81671911 -.00000061  00000+0  27339-3 0  9997
2 25853  51.9815  49.0222 0000375 131.5463 228.5380 11.42205171132009
GLOBALSTAR M030         
1 25854U 99037D   25164.88226897 -.00000095  00000+0 -43084-3 0  9997
2 25854  51.9856 215.1825 0002866  40.1553 319.9475 11.55108413149667
GLOBALSTAR M048         
1 25872U 99041A   25165.23380512 -.00000062  00000+0  21481-3 0  9997
2 25872  51.9392 342.9370 0013474 176.4147 354.7254 11.33857269124532
GLOBALSTAR M026         
1 25873U 99041B   25164.97558575 -.00000116  00000+0 -19127-2 0  9998
2 25873  51.9969 180.1226 0002452 265.9111 104.4443 11.06841285148137
GLOBALSTAR M043         
1 25874U 99041C   25165.17918655 -.00000071  00000+0 -90829-4 0  9991
2 25874  51.9400  90.5891 0013700 308.9311 194.1822 11.25694232122563
GLOBALSTAR M028         
1 25875U 99041D   25165.35583080 -.00000097  00000+0  23485-4 0  9993
2 25875  51.9606 201.5087 0063271  65.5246 295.2197 12.50583714189858
